{"type": "FeatureCollection", "features": [ {"type": "Feature", "properties": {"norad_id": 33867, "name": "IRIDIUM 33 DEB", "group": "iridium-33-debris", "lat": 24.71806198126354, "lon": 170.25693557467167, "alt_km": 379.7825908113591, "timestamp": "2025-12-09T04:51:47.876526+00:00", "meta": {"OBJECT_NAME": "IRIDIUM 33 DEB", "OBJECT_ID": "1997-051AL", "EPOCH": "2025-12-08T12:48:58.471776", "MEAN_MOTION": 15.60555774, "ECCENTRICITY": 0.0012895, "INCLINATION": 86.363, "RA_OF_ASC_NODE": 352.2785, "ARG_OF_PERICENTER": 90.3716, "MEAN_ANOMALY": 269.9027, "EPHEMERIS_TYPE": 0, "CLASSIFICATION_TYPE": "U", "NORAD_CAT_ID": 33867, "ELEMENT_SET_NO": 999, "REV_AT_EPOCH": 89445, "BSTAR": 0.007562, "MEAN_MOTION_DOT": 0.00677686, "MEAN_MOTION_DDOT": 0}, "tle": {"line1": "1 33867U 97051AL  25342.53401009  .00677686  00000+0  75620-2 0  9998", "line2": "2 33867  86.3630 352.2785 0012895  90.3716 269.9027 15.60555774894458"}}, "geometry": {"type": "Point", "coordinates": [170.25693557467167, 24.71806198126354]}}, {"type": "Feature", "properties": {"norad_id": 33870, "name": "IRIDIUM 33 DEB", "group": "iridium-33-debris", "lat": -72.09426128386671, "lon": 48.46113082413215, "alt_km": 748.7278056947616, "timestamp": "2025-12-09T04:51:47.876536+00:00", "meta": {"OBJECT_NAME": "IRIDIUM 33 DEB", "OBJECT_ID": "1997-051AP", "EPOCH": "2025-12-08T18:08:27.400416", "MEAN_MOTION": 14.45819097, "ECCENTRICITY": 0.0021029, "INCLINATION": 86.3748, "RA_OF_ASC_NODE": 59.9683, "ARG_OF_PERICENTER": 191.2214, "MEAN_ANOMALY": 292.2198, "EPHEMERIS_TYPE": 0, "CLASSIFICATION_TYPE": "U", "NORAD_CAT_ID": 33870, "ELEMENT_SET_NO": 999, "REV_AT_EPOCH": 88079, "BSTAR": 0.0014024, "MEAN_MOTION_DOT": 5.008e-05, "MEAN_MOTION_DDOT": 0}, "tle": {"line1": "1 33870U 97051AP  25342.75587269  .00005008  00000+0  14024-2 0  9993", "line2": "2 33870  86.3748  59.9683 0021029 191.2214 292.2198 14.45819097880796"}}, "geometry": {"type": "Point", "coordinates": [48.46113082413215, -72.09426128386671]}}, {"type": "Feature", "properties": {"norad_id": 33881, "name": "IRIDIUM 33 DEB", "group": "iridium-33-debris", "lat": 19.431776701580187, "lon": 109.55667162662184, "alt_km": 747.1315994643346, "timestamp": "2025-12-09T04:51:47.876547+00:00", "meta": {"OBJECT_NAME": "IRIDIUM 33 DEB", "OBJECT_ID": "1997-051BA", "EPOCH": "2025-12-08T19:37:03.734976", "MEAN_MOTION": 14.56459418, "ECCENTRICITY": 0.0061417, "INCLINATION": 86.387, "RA_OF_ASC_NODE": 108.4468, "ARG_OF_PERICENTER": 187.3743, "MEAN_ANOMALY": 333.7931, "EPHEMERIS_TYPE": 0, "CLASSIFICATION_TYPE": "U", "NORAD_CAT_ID": 33881, "ELEMENT_SET_NO": 999, "REV_AT_EPOCH": 87443, "BSTAR": 0.003034, "MEAN_MOTION_DOT": 0.00013864, "MEAN_MOTION_DDOT": 0}, "tle": {"line1": "1 33881U 97051BA  25342.81740434  .00013864  00000+0  30340-2 0  9995", "line2": "2 33881  86.3870 108.4468 0061417 187.3743 333.7931 14.56459418874432"}}, "geometry": {"type": "Point", "coordinates": [109.55667162662184, 19.431776701580187]}}, {"type": "Feature", "properties": {"norad_id": 33884, "name": "IRIDIUM 33 DEB", "group": "iridium-33-debris", "lat": 61.144406472248725, "lon": 18.032227876990643, "alt_km": 631.2007776746123, "timestamp": "2025-12-09T04:51:47.876561+00:00", "meta": {"OBJECT_NAME": "IRIDIUM 33 DEB", "OBJECT_ID": "1997-051BD", "EPOCH": "2025-12-08T14:31:15.449088", "MEAN_MOTION": 14.77305834, "ECCENTRICITY": 0.0010135, "INCLINATION": 86.3691, "RA_OF_ASC_NODE": 11.6845, "ARG_OF_PERICENTER": 339.4756, "MEAN_ANOMALY": 145.6855, "EPHEMERIS_TYPE": 0, "CLASSIFICATION_TYPE": "U", "NORAD_CAT_ID": 33884, "ELEMENT_SET_NO": 999, "REV_AT_EPOCH": 88786, "BSTAR": 0.0017784, "MEAN_MOTION_DOT": 0.00012665, "MEAN_MOTION_DDOT": 0}, "tle": {"line1": "1 33884U 97051BD  25342.60503992  .00012665  00000+0  17784-2 0  9996", "line2": "2 33884  86.3691  11.6845 0010135 339.4756 145.6855 14.77305834887866"}}, "geometry": {"type": "Point", "coordinates": [18.032227876990643, 61.144406472248725]}}, {"type": "Feature", "properties": {"norad_id": 33886, "name": "IRIDIUM 33 DEB", "group": "iridium-33-debris", "lat": 27.527705225484745, "lon": -113.17178552226974, "alt_km": 772.5086579264853, "timestamp": "2025-12-09T04:51:47.876572+00:00", "meta": {"OBJECT_NAME": "IRIDIUM 33 DEB", "OBJECT_ID": "1997-051BF", "EPOCH": "2025-12-08T18:39:56.221056", "MEAN_MOTION": 14.36045449, "ECCENTRICITY": 0.0012112, "INCLINATION": 86.383, "RA_OF_ASC_NODE": 68.8962, "ARG_OF_PERICENTER": 256.974, "MEAN_ANOMALY": 220.2122, "EPHEMERIS_TYPE": 0, "CLASSIFICATION_TYPE": "U", "NORAD_CAT_ID": 33886, "ELEMENT_SET_NO": 999, "REV_AT_EPOCH": 87995, "BSTAR": 0.00040017, "MEAN_MOTION_DOT": 1.183e-05, "MEAN_MOTION_DDOT": 0}, "tle": {"line1": "1 33886U 97051BF  25342.77773404  .00001183  00000+0  40017-3 0  9992", "line2": "2 33886  86.3830  68.8962 0012112 256.9740 220.2122 14.36045449879956"}}, "geometry": {"type": "Point", "coordinates": [-113.17178552226974, 27.527705225484745]}}, {"type": "Feature", "properties": {"norad_id": 33887, "name": "IRIDIUM 33 DEB", "group": "iridium-33-debris", "lat": 73.37646046461413, "lon": 17.417758118469454, "alt_km": 763.694957304735, "timestamp": "2025-12-09T04:51:47.876583+00:00", "meta": {"OBJECT_NAME": "IRIDIUM 33 DEB", "OBJECT_ID": "1997-051BG", "EPOCH": "2025-12-08T12:25:25.149216", "MEAN_MOTION": 14.37215851, "ECCENTRICITY": 0.00041571, "INCLINATION": 86.3048, "RA_OF_ASC_NODE": 5.2119, "ARG_OF_PERICENTER": 246.101, "MEAN_ANOMALY": 245.8633, "EPHEMERIS_TYPE": 0, "CLASSIFICATION_TYPE": "U", "NORAD_CAT_ID": 33887, "ELEMENT_SET_NO": 999, "REV_AT_EPOCH": 88104, "BSTAR": 0.00027289302, "MEAN_MOTION_DOT": 8.32e-06, "MEAN_MOTION_DDOT": 0}, "tle": {"line1": "1 33887U 97051BG  25342.51765219  .00000832  00000+0  27289-3 0  9996", "line2": "2 33887  86.3048   5.2119 0004157 246.1010 245.8633 14.37215851881048"}}, "geometry": {"type": "Point", "coordinates": [17.417758118469454, 73.37646046461413]}}, {"type": "Feature", "properties": {"norad_id": 33953, "name": "IRIDIUM 33 DEB", "group": "iridium-33-debris", "lat": 59.063121714467236, "lon": 61.37065779353861, "alt_km": 695.164536397444, "timestamp": "2025-12-09T04:51:47.876593+00:00", "meta": {"OBJECT_NAME": "IRIDIUM 33 DEB", "OBJECT_ID": "1997-051BN", "EPOCH": "2025-12-08T15:57:49.131936", "MEAN_MOTION": 14.55261918, "ECCENTRICITY": 0.0018478, "INCLINATION": 86.3841, "RA_OF_ASC_NODE": 55.5477, "ARG_OF_PERICENTER": 115.1859, "MEAN_ANOMALY": 10.2465, "EPHEMERIS_TYPE": 0, "CLASSIFICATION_TYPE": "U", "NORAD_CAT_ID": 33953, "ELEMENT_SET_NO": 999, "REV_AT_EPOCH": 88244, "BSTAR": 0.0018443, "MEAN_MOTION_DOT": 8.026e-05, "MEAN_MOTION_DDOT": 0}, "tle": {"line1": "1 33953U 97051BN  25342.66515199  .00008026  00000+0  18443-2 0  9990", "line2": "2 33953  86.3841  55.5477 0018478 115.1859  10.2465 14.55261918882442"}}, "geometry": {"type": "Point", "coordinates": [61.37065779353861, 59.063121714467236]}}, {"type": "Feature", "properties": {"norad_id": 33960, "name": "IRIDIUM 33 DEB", "group": "iridium-33-debris", "lat": -25.630868999604573, "lon": 112.98283578022978, "alt_km": 623.6308406709586, "timestamp": "2025-12-09T04:51:47.876604+00:00", "meta": {"OBJECT_NAME": "IRIDIUM 33 DEB", "OBJECT_ID": "1997-051BV", "EPOCH": "2025-12-08T09:06:17.165376", "MEAN_MOTION": 14.84831157, "ECCENTRICITY": 0.00073038, "INCLINATION": 86.2539, "RA_OF_ASC_NODE": 291.5693, "ARG_OF_PERICENTER": 68.5761, "MEAN_ANOMALY": 59.0624, "EPHEMERIS_TYPE": 0, "CLASSIFICATION_TYPE": "U", "NORAD_CAT_ID": 33960, "ELEMENT_SET_NO": 999, "REV_AT_EPOCH": 88802, "BSTAR": 0.003761271, "MEAN_MOTION_DOT": 0.0003209, "MEAN_MOTION_DDOT": 0}, "tle": {"line1": "1 33960U 97051BV  25342.37936534  .00032090  00000+0  37613-2 0  9994", "line2": "2 33960  86.2539 291.5693 0007303  68.5761  59.0624 14.84831157888021"}}, "geometry": {"type": "Point", "coordinates": [112.98283578022978, -25.630868999604573]}}, {"type": "Feature", "properties": {"norad_id": 33966, "name": "IRIDIUM 33 DEB", "group": "iridium-33-debris", "lat": -77.7264636890888, "lon": -115.59657971278067, "alt_km": 731.8487233403075, "timestamp": "2025-12-09T04:51:47.876614+00:00", "meta": {"OBJECT_NAME": "IRIDIUM 33 DEB", "OBJECT_ID": "1997-051CB", "EPOCH": "2025-12-08T16:37:01.548192", "MEAN_MOTION": 14.49569326, "ECCENTRICITY": 0.0006946, "INCLINATION": 86.3923, "RA_OF_ASC_NODE": 47.7641, "ARG_OF_PERICENTER": 202.0511, "MEAN_ANOMALY": 275.0616, "EPHEMERIS_TYPE": 0, "CLASSIFICATION_TYPE": "U", "NORAD_CAT_ID": 33966, "ELEMENT_SET_NO": 999, "REV_AT_EPOCH": 88383, "BSTAR": 0.00096319, "MEAN_MOTION_DOT": 3.715e-05, "MEAN_MOTION_DDOT": 0}, "tle": {"line1": "1 33966U 97051CB  25342.69237903  .00003715  00000+0  96319-3 0  9990", "line2": "2 33966  86.3923  47.7641 0006946 202.0511 275.0616 14.49569326883831"}}, "geometry": {"type": "Point", "coordinates": [-115.59657971278067, -77.7264636890888]}}, {"type": "Feature", "properties": {"norad_id": 34071, "name": "IRIDIUM 33 DEB", "group": "iridium-33-debris", "lat": -33.87832694934265, "lon": 16.906346960784724, "alt_km": 739.8046179685962, "timestamp": "2025-12-09T04:51:47.876625+00:00", "meta": {"OBJECT_NAME": "IRIDIUM 33 DEB", "OBJECT_ID": "1997-051CE", "EPOCH": "2025-12-08T15:45:53.538624", "MEAN_MOTION": 14.49438638, "ECCENTRICITY": 0.0009791, "INCLINATION": 86.3456, "RA_OF_ASC_NODE": 19.6028, "ARG_OF_PERICENTER": 118.4597, "MEAN_ANOMALY": 241.7595, "EPHEMERIS_TYPE": 0, "CLASSIFICATION_TYPE": "U", "NORAD_CAT_ID": 34071, "ELEMENT_SET_NO": 999, "REV_AT_EPOCH": 88275, "BSTAR": 0.0010328, "MEAN_MOTION_DOT": 3.973e-05, "MEAN_MOTION_DDOT": 0}, "tle": {"line1": "1 34071U 97051CE  25342.65686966  .00003973  00000+0  10328-2 0  9992", "line2": "2 34071  86.3456  19.6028 0009791 118.4597 241.7595 14.49438638882759"}}, "geometry": {"type": "Point", "coordinates": [16.906346960784724, -33.87832694934265]}}]}